[{"OBJECT_NAME":"STARLINK-3881","OBJECT_ID":"2022-049X","EPOCH":"2025-08-13T10:43:15.284352","MEAN_MOTION":15.08834655,"ECCENTRICITY":0.0001229,"INCLINATION":53.2167,"RA_OF_ASC_NODE":273.9631,"ARG_OF_PERICENTER":89.0398,"MEAN_ANOMALY":271.0735,"EPHEMERIS_TYPE":0,"CLASSIFICATION_TYPE":"U","NORAD_CAT_ID":52472,"ELEMENT_SET_NO":999,"REV_AT_EPOCH":18081,"BSTAR":2.2641e-5,"MEAN_MOTION_DOT":7.2e-7,"MEAN_MOTION_DDOT":0},{"OBJECT_NAME":"STARLINK-3879","OBJECT_ID":"2022-049Y","EPOCH":"2025-08-13T12:29:15.471744","MEAN_MOTION":15.08839401,"ECCENTRICITY":0.0001196,"INCLINATION":53.2173,"RA_OF_ASC_NODE":273.6325,"ARG_OF_PERICENTER":83.0759,"MEAN_ANOMALY":277.0369,"EPHEMERIS_TYPE":0,"CLASSIFICATION_TYPE":"U","NORAD_CAT_ID":52473,"ELEMENT_SET_NO":999,"REV_AT_EPOCH":18082,"BSTAR":-3.5722e-5,"MEAN_MOTION_DOT":-8.56e-6,"MEAN_MOTION_DDOT":0},{"OBJECT_NAME":"STARLINK-3855","OBJECT_ID":"2022-049Z","EPOCH":"2025-08-13T12:47:50.396352","MEAN_MOTION":15.08835052,"ECCENTRICITY":0.000117,"INCLINATION":53.2167,"RA_OF_ASC_NODE":263.5816,"ARG_OF_PERICENTER":83.4965,"MEAN_ANOMALY":276.616,"EPHEMERIS_TYPE":0,"CLASSIFICATION_TYPE":"U","NORAD_CAT_ID":52474,"ELEMENT_SET_NO":999,"REV_AT_EPOCH":18096,"BSTAR":-2.0459e-6,"MEAN_MOTION_DOT":-3.2e-6,"MEAN_MOTION_DDOT":0},{"OBJECT_NAME":"STARLINK-3882","OBJECT_ID":"2022-049AA","EPOCH":"2025-08-13T11:15:05.137344","MEAN_MOTION":15.08834912,"ECCENTRICITY":0.0001204,"INCLINATION":53.2165,"RA_OF_ASC_NODE":274.0835,"ARG_OF_PERICENTER":92.192,"MEAN_ANOMALY":267.921,"EPHEMERIS_TYPE":0,"CLASSIFICATION_TYPE":"U","NORAD_CAT_ID":52475,"ELEMENT_SET_NO":999,"REV_AT_EPOCH":18081,"BSTAR":1.6039e-5,"MEAN_MOTION_DOT":-3.3e-7,"MEAN_MOTION_DDOT":0},{"OBJECT_NAME":"STARLINK-3835","OBJECT_ID":"2022-049AB","EPOCH":"2025-08-13T10:03:36.234432","MEAN_MOTION":15.08840041,"ECCENTRICITY":0.0001321,"INCLINATION":53.2167,"RA_OF_ASC_NODE":264.3263,"ARG_OF_PERICENTER":84.0728,"MEAN_ANOMALY":276.0414,"EPHEMERIS_TYPE":0,"CLASSIFICATION_TYPE":"U","NORAD_CAT_ID":52476,"ELEMENT_SET_NO":999,"REV_AT_EPOCH":18218,"BSTAR":-0.00024411,"MEAN_MOTION_DOT":-4.171e-5,"MEAN_MOTION_DDOT":0},{"OBJECT_NAME":"STARLINK-3860","OBJECT_ID":"2022-049AC","EPOCH":"2025-08-13T11:16:22.641600","MEAN_MOTION":15.08834988,"ECCENTRICITY":0.0001337,"INCLINATION":53.2171,"RA_OF_ASC_NODE":263.8577,"ARG_OF_PERICENTER":89.5064,"MEAN_ANOMALY":270.6082,"EPHEMERIS_TYPE":0,"CLASSIFICATION_TYPE":"U","NORAD_CAT_ID":52477,"ELEMENT_SET_NO":999,"REV_AT_EPOCH":18219,"BSTAR":1.3229e-5,"MEAN_MOTION_DOT":-7.7e-7,"MEAN_MOTION_DDOT":0},{"OBJECT_NAME":"STARLINK-3825","OBJECT_ID":"2022-049AD","EPOCH":"2025-08-13T10:32:38.807520","MEAN_MOTION":15.08839891,"ECCENTRICITY":0.0001051,"INCLINATION":53.2174,"RA_OF_ASC_NODE":273.9953,"ARG_OF_PERICENTER":78.1498,"MEAN_ANOMALY":281.9612,"EPHEMERIS_TYPE":0,"CLASSIFICATION_TYPE":"U","NORAD_CAT_ID":52478,"ELEMENT_SET_NO":999,"REV_AT_EPOCH":18205,"BSTAR":3.8019e-5,"MEAN_MOTION_DOT":3.17e-6,"MEAN_MOTION_DDOT":0},{"OBJECT_NAME":"STARLINK-3878","OBJECT_ID":"2022-049AE","EPOCH":"2025-08-13T02:58:14.682720","MEAN_MOTION":15.08840867,"ECCENTRICITY":0.0001448,"INCLINATION":53.217,"RA_OF_ASC_NODE":265.4109,"ARG_OF_PERICENTER":83.6927,"MEAN_ANOMALY":276.423,"EPHEMERIS_TYPE":0,"CLASSIFICATION_TYPE":"U","NORAD_CAT_ID":52479,"ELEMENT_SET_NO":999,"REV_AT_EPOCH":18214,"BSTAR":5.5045e-5,"MEAN_MOTION_DOT":5.88e-6,"MEAN_MOTION_DDOT":0},{"OBJECT_NAME":"STARLINK-3839","OBJECT_ID":"2022-049AF","EPOCH":"2025-08-13T12:02:44.034720","MEAN_MOTION":15.0884083,"ECCENTRICITY":0.0001058,"INCLINATION":53.2169,"RA_OF_ASC_NODE":273.7141,"ARG_OF_PERICENTER":86.5924,"MEAN_ANOMALY":273.5189,"EPHEMERIS_TYPE":0,"CLASSIFICATION_TYPE":"U","NORAD_CAT_ID":52480,"ELEMENT_SET_NO":999,"REV_AT_EPOCH":18082,"BSTAR":2.9792e-5,"MEAN_MOTION_DOT":1.86e-6,"MEAN_MOTION_DDOT":0},{"OBJECT_NAME":"STARLINK-3813","OBJECT_ID":"2022-049AH","EPOCH":"2025-08-13T12:19:57.674208","MEAN_MOTION":15.08838316,"ECCENTRICITY":0.0001307,"INCLINATION":53.2163,"RA_OF_ASC_NODE":263.6619,"ARG_OF_PERICENTER":87.1571,"MEAN_ANOMALY":272.957,"EPHEMERIS_TYPE":0,"CLASSIFICATION_TYPE":"U","NORAD_CAT_ID":52482,"ELEMENT_SET_NO":999,"REV_AT_EPOCH":18096,"BSTAR":1.3042e-5,"MEAN_MOTION_DOT":-8.0e-7,"MEAN_MOTION_DDOT":0},{"OBJECT_NAME":"STARLINK-3875","OBJECT_ID":"2022-049AJ","EPOCH":"2025-08-13T09:25:05.388672","MEAN_MOTION":15.08838966,"ECCENTRICITY":0.0001249,"INCLINATION":53.2161,"RA_OF_ASC_NODE":264.2042,"ARG_OF_PERICENTER":90.4814,"MEAN_ANOMALY":269.6322,"EPHEMERIS_TYPE":0,"CLASSIFICATION_TYPE":"U","NORAD_CAT_ID":52483,"ELEMENT_SET_NO":999,"REV_AT_EPOCH":18218,"BSTAR":1.9506e-5,"MEAN_MOTION_DOT":2.3e-7,"MEAN_MOTION_DDOT":0},{"OBJECT_NAME":"STARLINK-3887","OBJECT_ID":"2022-049AK","EPOCH":"2025-08-13T10:22:03.120384","MEAN_MOTION":15.08834625,"ECCENTRICITY":0.0001288,"INCLINATION":53.2174,"RA_OF_ASC_NODE":274.0274,"ARG_OF_PERICENTER":88.3234,"MEAN_ANOMALY":271.7906,"EPHEMERIS_TYPE":0,"CLASSIFICATION_TYPE":"U","NORAD_CAT_ID":52484,"ELEMENT_SET_NO":999,"REV_AT_EPOCH":18081,"BSTAR":3.2464e-5,"MEAN_MOTION_DOT":2.29e-6,"MEAN_MOTION_DDOT":0},{"OBJECT_NAME":"STARLINK-3913","OBJECT_ID":"2022-049AL","EPOCH":"2025-08-13T10:49:52.259520","MEAN_MOTION":15.08840191,"ECCENTRICITY":0.0001173,"INCLINATION":53.2163,"RA_OF_ASC_NODE":263.9408,"ARG_OF_PERICENTER":77.3663,"MEAN_ANOMALY":282.7461,"EPHEMERIS_TYPE":0,"CLASSIFICATION_TYPE":"U","NORAD_CAT_ID":52485,"ELEMENT_SET_NO":999,"REV_AT_EPOCH":18095,"BSTAR":7.337e-5,"MEAN_MOTION_DOT":8.8e-6,"MEAN_MOTION_DDOT":0},{"OBJECT_NAME":"STARLINK-3918","OBJECT_ID":"2022-049AM","EPOCH":"2025-08-13T10:11:27.353760","MEAN_MOTION":15.08832978,"ECCENTRICITY":0.0001286,"INCLINATION":53.2174,"RA_OF_ASC_NODE":274.0598,"ARG_OF_PERICENTER":90.6711,"MEAN_ANOMALY":269.4429,"EPHEMERIS_TYPE":0,"CLASSIFICATION_TYPE":"U","NORAD_CAT_ID":52486,"ELEMENT_SET_NO":999,"REV_AT_EPOCH":18081,"BSTAR":-1.4186e-5,"MEAN_MOTION_DOT":-5.14e-6,"MEAN_MOTION_DDOT":0},{"OBJECT_NAME":"STARLINK-3902","OBJECT_ID":"2022-049AN","EPOCH":"2025-08-13T11:05:47.550624","MEAN_MOTION":15.08838209,"ECCENTRICITY":0.0001041,"INCLINATION":53.2164,"RA_OF_ASC_NODE":263.9951,"ARG_OF_PERICENTER":86.5891,"MEAN_ANOMALY":273.522,"EPHEMERIS_TYPE":0,"CLASSIFICATION_TYPE":"U","NORAD_CAT_ID":52487,"ELEMENT_SET_NO":999,"REV_AT_EPOCH":18219,"BSTAR":2.0375e-5,"MEAN_MOTION_DOT":3.7e-7,"MEAN_MOTION_DDOT":0},{"OBJECT_NAME":"STARLINK-3892","OBJECT_ID":"2022-049AP","EPOCH":"2025-08-13T10:06:09.334368","MEAN_MOTION":15.08830882,"ECCENTRICITY":0.0001279,"INCLINATION":53.2167,"RA_OF_ASC_NODE":274.0764,"ARG_OF_PERICENTER":84.5245,"MEAN_ANOMALY":275.5893,"EPHEMERIS_TYPE":0,"CLASSIFICATION_TYPE":"U","NORAD_CAT_ID":52488,"ELEMENT_SET_NO":999,"REV_AT_EPOCH":18081,"BSTAR":-3.1779e-5,"MEAN_MOTION_DOT":-7.93e-6,"MEAN_MOTION_DDOT":0},{"OBJECT_NAME":"STARLINK-3923","OBJECT_ID":"2022-049AQ","EPOCH":"2025-08-13T10:16:45.789600","MEAN_MOTION":15.08832536,"ECCENTRICITY":0.0001439,"INCLINATION":53.2179,"RA_OF_ASC_NODE":274.044,"ARG_OF_PERICENTER":90.2115,"MEAN_ANOMALY":269.9042,"EPHEMERIS_TYPE":0,"CLASSIFICATION_TYPE":"U","NORAD_CAT_ID":52489,"ELEMENT_SET_NO":999,"REV_AT_EPOCH":18081,"BSTAR":-4.8016e-6,"MEAN_MOTION_DOT":-3.64e-6,"MEAN_MOTION_DDOT":0}]
