STARLINK-3881           
1 52472U 22049X   25225.44670468  .00000072  00000+0  22641-4 0  9999
2 52472  53.2167 273.9631 0001229  89.0398 271.0735 15.08834655180816
STARLINK-3879           
1 52473U 22049Y   25225.52031796 -.00000856  00000+0 -35722-4 0  9990
2 52473  53.2173 273.6325 0001196  83.0759 277.0369 15.08839401180823
STARLINK-3855           
1 52474U 22049Z   25225.53322218 -.00000320  00000+0 -20459-5 0  9992
2 52474  53.2167 263.5816 0001170  83.4965 276.6160 15.08835052180962
STARLINK-3882           
1 52475U 22049AA  25225.46880946 -.00000033  00000+0  16039-4 0  9990
2 52475  53.2165 274.0835 0001204  92.1920 267.9210 15.08834912180812
STARLINK-3835           
1 52476U 22049AB  25225.41916938 -.00004171  00000+0 -24411-3 0  9997
2 52476  53.2167 264.3263 0001321  84.0728 276.0414 15.08840041182187
STARLINK-3860           
1 52477U 22049AC  25225.46970650 -.00000077  00000+0  13229-4 0  9990
2 52477  53.2171 263.8577 0001337  89.5064 270.6082 15.08834988182190
STARLINK-3825           
1 52478U 22049AD  25225.43933805  .00000317  00000+0  38019-4 0  9999
2 52478  53.2174 273.9953 0001051  78.1498 281.9612 15.08839891182059
STARLINK-3878           
1 52479U 22049AE  25225.12378105  .00000588  00000+0  55045-4 0  9990
2 52479  53.2170 265.4109 0001448  83.6927 276.4230 15.08840867182143
STARLINK-3839           
1 52480U 22049AF  25225.50189855  .00000186  00000+0  29792-4 0  9990
2 52480  53.2169 273.7141 0001058  86.5924 273.5189 15.08840830180821
STARLINK-3813           
1 52482U 22049AH  25225.51386197 -.00000080  00000+0  13042-4 0  9996
2 52482  53.2163 263.6619 0001307  87.1571 272.9570 15.08838316180965
STARLINK-3875           
1 52483U 22049AJ  25225.39242348  .00000023  00000+0  19506-4 0  9999
2 52483  53.2161 264.2042 0001249  90.4814 269.6322 15.08838966182188
STARLINK-3887           
1 52484U 22049AK  25225.43198056  .00000229  00000+0  32464-4 0  9997
2 52484  53.2174 274.0274 0001288  88.3234 271.7906 15.08834625180812
STARLINK-3913           
1 52485U 22049AL  25225.45129930  .00000880  00000+0  73370-4 0  9999
2 52485  53.2163 263.9408 0001173  77.3663 282.7461 15.08840191180952
STARLINK-3918           
1 52486U 22049AM  25225.42462215 -.00000514  00000+0 -14186-4 0  9999
2 52486  53.2174 274.0598 0001286  90.6711 269.4429 15.08832978180810
STARLINK-3902           
1 52487U 22049AN  25225.46235591  .00000037  00000+0  20375-4 0  9994
2 52487  53.2164 263.9951 0001041  86.5891 273.5220 15.08838209182193
STARLINK-3892           
1 52488U 22049AP  25225.42094137 -.00000793  00000+0 -31779-4 0  9991
2 52488  53.2167 274.0764 0001279  84.5245 275.5893 15.08830882180810
STARLINK-3923           
1 52489U 22049AQ  25225.42830775 -.00000364  00000+0 -48016-5 0  9995
2 52489  53.2179 274.0440 0001439  90.2115 269.9042 15.08832536180814
